institution_id,institution_name,acronym,type,category,subcategory,State,address,phone,url
POLY-001,Politeknik Ungku Omar,PUO,IPTA,Politeknik,Premier,Perak,"Jalan Raja Musa Mahadi, 31400 Ipoh, Perak",05-5457622,https://www.puo.edu.my
POLY-002,Politeknik Sultan Haji Ahmad Shah,POLISAS,IPTA,Politeknik,Konvensional,Pahang,"Semambu, 25350 Kuantan, Pahang",09-5655300,https://polisas.mypolycc.edu.my
POLY-003,Politeknik Sultan Abdul Halim Muadzam Shah,POLIMAS,IPTA,Politeknik,Konvensional,Kedah,"Bandar Darulaman, 06000 Jitra, Kedah",04-9146100,https://polimas.mypolycc.edu.my
POLY-004,Politeknik Kota Bharu,PKB,IPTA,Politeknik,Konvensional,Kelantan,"Km 24, Pangkal Kalong, Kok Lanas, 16450 Ketereh, Kelantan",09-7889126,https://pkb.mypolycc.edu.my
POLY-005,Politeknik Kuching Sarawak,PKS,IPTA,Politeknik,Konvensional,Sarawak,"Km 22, Jalan Matang, 93050 Kuching, Sarawak",082-845596,https://www.poliku.edu.my
POLY-006,Politeknik Port Dickson,PPD,IPTA,Politeknik,Konvensional,Negeri Sembilan,"Km 14, Jalan Pantai, 71050 Si Rusa, Negeri Sembilan",06-6622111,https://polipd.mypolycc.edu.my
POLY-007,Politeknik Kota Kinabalu,PKK,IPTA,Politeknik,Konvensional,Sabah,"No. 4, Jalan Politeknik, Kkip Barat, Kota Kinabalu Industrial Park, 88460 Kota Kinabalu, Sabah",088-401816,https://polikk.mypolycc.edu.my
POLY-008,Politeknik Sultan Salahuddin Abdul Aziz Shah,PSA,IPTA,Politeknik,Premier,Selangor,"Persiaran Usahawan, Seksyen U1, 40150 Shah Alam, Selangor",03-51634000,https://psa.mypolycc.edu.my
POLY-009,Politeknik Ibrahim Sultan,PIS,IPTA,Politeknik,Premier,Johor,"Km 10, Jalan Kong Kong, 81700 Pasir Gudang, Johor",07-2612488 ,https://pis.mypolycc.edu.my
POLY-010,Politeknik Seberang Perai,PSP,IPTA,Politeknik,Konvensional,Pulau Pinang,"Jalan Permatang Pauh, 13500 Permatang Pauh, Pulau Pinang",04-5383322,http://www.psp.edu.my
POLY-011,Politeknik Melaka,PMK,IPTA,Politeknik,Konvensional,Melaka,"No. 2, Jalan Ppm 10, Plaza Pandan Malim, 75250 Balai Panjang, Melaka",06-3376058,https://polimelaka.mypolycc.edu.my
POLY-012,Politeknik Kuala Terengganu,PKT,IPTA,Politeknik,Konvensional,Terengganu,"Jalan Sultan Ismail, 20200 Kuala Terengganu, Terengganu",09-6322000,https://pkt.mypolycc.edu.my
POLY-013,Politeknik Sultan Mizan Zainal Abidin,PSMZA,IPTA,Politeknik,Konvensional,Terengganu,"Km 8, Jalan Paka, 23000 Dungun, Terengganu",09-8400800,https://psmza.mypolycc.edu.my
POLY-014,Politeknik Merlimau,PMM,IPTA,Politeknik,Konvensional,Melaka,"Km 2.5, Jalan Merlimau-Jasin, 77300 Merlimau, Melaka",06-2636687,https://pmm.mypolycc.edu.my
POLY-015,Politeknik Sultan Azlan Shah,PSAS,IPTA,Politeknik,Konvensional,Perak,"Behrang Stesen, 35950 Behrang, Perak",05-4544431,https://www.psas.edu.my
POLY-016,Politeknik Tuanku Sultanah Bahiyah,PTSB,IPTA,Politeknik,Konvensional,Kedah,"Kulim Hi-Tech Park, 09000 Kulim, Kedah",04-4033333,https://ptsb.mypolycc.edu.my
POLY-017,Politeknik Sultan Idris Shah,PSIS,IPTA,Politeknik,Konvensional,Selangor,"Sungai Lang, 45100 Sungai Air Tawar, Selangor",03-32806200,https://psis.mypolycc.edu.my
POLY-018,Politeknik Tuanku Syed Sirajuddin,PTSS,IPTA,Politeknik,Konvensional,Perlis,"Pauh Putra, 02600 Arau, Perlis",04-9886200,https://ptss.mypolycc.edu.my
POLY-019,Politeknik Muadzam Shah,PMS,IPTA,Politeknik,Konvensional,Pahang,"Lebuhraya Tun Abdul Razak, 26700 Muadzam Shah, Pahang",09-4502007,https://pms.mypolycc.edu.my
POLY-020,Politeknik Mukah Sarawak,PMU,IPTA,Politeknik,Konvensional,Sarawak,"Km 7.5, Jalan Oya, 96400 Mukah, Sarawak",084-874001,https://pmu.mypolycc.edu.my
POLY-021,Politeknik Balik Pulau,PBU,IPTA,Politeknik,Konvensional,Pulau Pinang,"Pinang Nirai Mukim 6, 11000 Balik Pulau, Pulau Pinang",04-8689000,https://heppbu.com
POLY-022,Politeknik Jeli,PJK,IPTA,Politeknik,Konvensional,Kelantan,"Jalan Raya Timur - Barat, 17600 Jeli, Kelantan",09-9443625,https://www.pjk.edu.my
POLY-023,Politeknik Nilai,PNS,IPTA,Politeknik,Konvensional,Negeri Sembilan,"Kompleks Pendidikan Bandar Enstek, 71760 Bandar Enstek, Negeri Sembilan",06-8505853,https://pns.mypolycc.edu.my
POLY-024,Politeknik Banting,PBS,IPTA,Politeknik,Konvensional,Selangor,"Persiaran Ilmu, Jln Sultan Abdul Samad, 42700 Banting, Selangor",03-31201657,https://pbs.mypolycc.edu.my
POLY-025,Politeknik Mersing,PMJ,IPTA,Politeknik,Konvensional,Johor,"Jalan Nitar, 86800 Mersing, Johor",07-7980001,https://pmj.mypolycc.edu.my
POLY-026,Politeknik Hulu Terengganu,PHT,IPTA,Politeknik,Konvensional,Terengganu,"Jalan Pengkalan Gawi Tasik Kenyir, Kuala Jeneris, 21700 Kuala Berang, Hulu Terengganu, Terengganu",09-6825555,https://pht.mypolycc.edu.my
POLY-027,Politeknik Sandakan,PSS,IPTA,Politeknik,Konvensional,Sabah,"Education Hub, Batu 10, Jalan Sungai Batang, 90000 Sandakan, Sabah",089-228351,https://pss.mypolycc.edu.my
POLY-028,Politeknik METrO Kuala Lumpur,PMKL,IPTA,Politeknik,METrO,WP Kuala Lumpur,"No. 2-14, Jalan Setiawangsa 10, Taman Setiawangsa, 54200 Kuala Lumpur, WP Kuala Lumpur",03-42514631,https://pmkl.mypolycc.edu.my
POLY-029,Politeknik METrO Kuantan,PMKU,IPTA,Politeknik,METrO,Pahang,"No. A-5, Jalan Tun Ismail 2, Sri Dagangan 2, 25000 Kuantan, Pahang",09-5659009,http://www.pmku.edu.my
POLY-030,Politeknik METrO Johor Bahru,PMJB,IPTA,Politeknik,METrO,Johor,"No. 64, Jalan Suria 19, Taman Putera, 81100 Johor Bahru, Johor",07-3358851,https://pmjb.mypolycc.edu.my
POLY-031,Politeknik METrO Betong,PMBS,IPTA,Politeknik,METrO,Sarawak,"1-12, Fasa 2, Bandar Baru Betong, Jalan Bandar Baru, 95700 Betong, Sarawak",083-472676,https://www.pmbs.edu.my
POLY-032,Politeknik METrO Tasek Gelugor,PMTG,IPTA,Politeknik,METrO,Pulau Pinang,"No.25, Jalan Komersial 2, Pusat Komersial Tasek Gelugor, 13300 Tasek Gelugor, Pulau Pinang",04-5732789,https://www.pmtg.edu.my
POLY-033,Politeknik Tun Syed Nasir Syed Ismail,PTSN,IPTA,Politeknik,Konvensional,Johor,"Hab Pendidikan Tinggi Pagoh, Km 1, Jln Panchor, 84600 Pagoh, Muar, Johor",06-9742288 ,https://ptsn.mypolycc.edu.my
POLY-034,Politeknik Besut,PBT,IPTA,Politeknik,Konvensional,Terengganu,"Jalan Bukit Keluang, 22200 Besut, Terengganu",011-56563550,https://bit.ly/pelajar-baharu-polibesut
POLY-035,Politeknik Bagan Datuk,PBD,IPTA,Politeknik,Konvensional,Perak,"Jalan Bagan Datuk, 36100 Bagan Datuk, Perak",05-6081630,https://pbd.mypolycc.edu.my
POLY-036,Politeknik Tawau,PTS,IPTA,Politeknik,Konvensional,Sabah,"Km 36, Jalan Apas Balung, 91009 Tawau, Sabah",019-3261269,https://politawau.mypolycc.edu.my
KKOM-001,Kolej Komuniti Teluk Intan,KKTI,IPTA,Kolej Komuniti,Kolej Komuniti,Perak,"10-20 Persiaran Intanova, Taman Intanova, 36000 Teluk Intan, Perak",05-622 2134 / 106 / 019-386 5875, https://sites.google.com/kktin.edu.my/unit-ambilan-kkti/pelajar-baharu
KKOM-002,Kolej Komuniti Chenderoh,KKC,IPTA,Kolej Komuniti,Kolej Komuniti,Perak,"Lot 43, Jalan Perindustrian Miel 2, Kawasan Perindustrian Iks, 33700 Kuala Kangsar, Perak",05-7733773 / 013-8046103, https://t.me/+d4h54EGVSOZjMmZl
KKOM-003,Kolej Komuniti Gerik,KKGE,IPTA,Kolej Komuniti,Kolej Komuniti,Perak,"Bukit Nasah, 33300 Gerik, Perak",017-6747479, https://kkgerik.mypolycc.edu.my/
KKOM-004,Kolej Komuniti Sungai Siput,KKSS,IPTA,Kolej Komuniti,Kolej Komuniti,Perak,"Kampung Sungai Sejuk, Peti Surat 390, 31100 Sungai Siput (U), Perak",05-5971440 / 012-5771433, https://kksungaisiput.mypolycc.edu.my/v1
KKOM-005,Kolej Komuniti Pasir Salak,KKPS,IPTA,Kolej Komuniti,Kolej Komuniti,Perak,"Jalan Lebuh Paduka, Changkat Lada, 36800 Kampung Gajah, Perak",05-6552300 / 011-13122249, kkpasirsalak.mypolycc.edu.my
KKOM-006,Kolej Komuniti Batu Gajah,KKBG,IPTA,Kolej Komuniti,Kolej Komuniti,Perak,"11338-11359 Jalan Bandar Baharu 2, Pusat Bandar Baru, 31000 Batu Gajah, Perak",05-3651966 / 018-9144679, https://kkbatugajah.mypolycc.edu.my
KKOM-007,Kolej Komuniti Taiping,KKTA,IPTA,Kolej Komuniti,Kolej Komuniti,Perak,"No. 25, Laluan Kamunting 3, Bandar Kamunting, 34600 Kamunting, Perak",05-8911884 / 05-8911867 / 014-5121800, https://kktaiping.mypolycc.edu.my/index.php/muat-turun/buku-panduan
KKOM-008,Kolej Komuniti Bagan Datuk,KKBDA,IPTA,Kolej Komuniti,Kolej Komuniti,Perak,"No. 40-51, Lorong Lagenda 2, Medaniaga Lagenda, 36400 Hutan Melintang, Perak",05-6413694 /3695 / 011-29524191, http://tiny.cc/DokumenPendaftaranDis2025
KKOM-009,Kolej Komuniti Bagan Serai,KKBS,IPTA,Kolej Komuniti,Kolej Komuniti,Perak,"No. 29, Jalan Syed Thauphy 2, 34300 Bagan Serai, Perak",05-7210020 / 011-5652 4292, https://kkbaganserai.mypolycc.edu.my/
KKOM-010,Kolej Komuniti Manjung,KKMA,IPTA,Kolej Komuniti,Kolej Komuniti,Perak,"Lot 31, Persiaran PM 2/2, Pusat Bandar Seri Manjung, Seksyen 2, 32040 Manjung, Perak",05-6884526 / 013-4887704, https://kkmanjung.mypolycc.edu.my/
KKOM-011,Kolej Komuniti Kuala Kangsar,KKKK,IPTA,Kolej Komuniti,Kolej Komuniti,Perak,"No. 60-62, Bangunan MPKK, Jalan Dato Maharaja Lela, 33000 Kuala Kangsar, Perak",016-9162819 / 05-7773770, https://kkkualakangsar.mypolycc.edu.my/v2/
KKOM-012,Kolej Komuniti Tapah,KKTAP,IPTA,Kolej Komuniti,Kolej Komuniti,Perak,"Lot 9396, Wisma Chan Poh Lim, 35000 Tapah, Perak",05-4010072 / 011-17469694, https://kktapah.edu.my/portalv2/
KKOM-013,Kolej Komuniti Gopeng,KKG,IPTA,Kolej Komuniti,Kolej Komuniti,Perak,"Peti Surat 11, Kompleks RTC Perak, Km 16, Jalan Gopeng, Kawasan Perindustrian Gopeng 2, 31600 Gopeng, Perak",05-3571737 / 011-63486228, https://kkgopeng.mypolycc.edu.my/
KKOM-014,Kolej Komuniti Sabak Bernam,KKSB,IPTA,Kolej Komuniti,Kolej Komuniti,Selangor,"Jalan Raja Chulan, 45200 Sabak Bernam, Selangor",03-3216 3235, https://kksabakbernam.mypolycc.edu.my
KKOM-015,Kolej Komuniti Kuala Langat,KKKLA,IPTA,Kolej Komuniti,Kolej Komuniti,Selangor,"Jalan Sultan Suleiman Shah, Jugra, 42700 Banting, Selangor",03-31202030 / 019-3704733, https://kkkualalangat.mypolycc.edu.my
KKOM-016,Kolej Komuniti Hulu Selangor,KKHS,IPTA,Kolej Komuniti,Kolej Komuniti,Selangor,"No. 43-57, Jalan Kelah 2, Taman Perniagaan Kelah, 44300 Batang Kali, Selangor",03-60571717 / 011-13105176, https://kkhuluselangor.mypolycc.edu.my/
KKOM-017,Kolej Komuniti Hulu Langat,KKHL,IPTA,Kolej Komuniti,Kolej Komuniti,Selangor,"Jalan Prima Saujana 2/G, Taman Prima Saujana, 43000 Kajang, Selangor",03-87370037 / 012-6361549, http://kkhululangat.mypolycc.edu.my/
KKOM-018,Kolej Komuniti Selayang,KKSE,IPTA,Kolej Komuniti,Kolej Komuniti,Selangor,"Persiaran Pegawai, Km 16, Jalan Ipoh, 68100 Batu Caves, Selangor",03-61368200 / 013-7478773, https://kkselayang.mypolycc.edu.my/
KKOM-019,Kolej Komuniti Ampang,KKAM,IPTA,Kolej Komuniti,Kolej Komuniti,Selangor,"Lot Pt 3890, 25 & 27, Jalan Bukit Indah 4, Taman Bukit Indah, 68000 Ampang, Selangor",017-8218081, https://kkampang.mypolycc.edu.my/
KKOM-020,Kolej Komuniti Kelana Jaya,KKKJ,IPTA,Kolej Komuniti,Kolej Komuniti,Selangor,"No. 2, Jalan PJS 5/28b, Petaling Jaya Commercial City, 46150 Petaling Jaya, Selangor",03-77720259 / 011-67098604, https://kkkelanajaya.mypolycc.edu.my/
KKOM-021,Kolej Komuniti Tanjung Karang,KKTK,IPTA,Kolej Komuniti,Kolej Komuniti,Selangor,"Jalan PB 1, Pusat Bandar Tanjong Karang, 45500 Tanjong Karang, Selangor",012-2611354, https://kktanjongkarang.mypolycc.edu.my/ atau https://maslinadoraji.com/kktk
KKOM-022,Kolej Komuniti Klang,KKKLAN,IPTA,Kolej Komuniti,Kolej Komuniti,Selangor,"No. 2680, Persiaran Tengku Ampuan Rahimah, Taman Lipat Kajang, 41200 Klang, Selangor",03-33732030 / 011-13007697,https://kkklang.mypolycc.edu.my/
KKOM-023,Kolej Komuniti Shah Alam,KKSA,IPTA,Kolej Komuniti,Kolej Komuniti,Selangor,"D/A Politeknik Sultan Salahuddin Abdul Aziz Shah, Persiaran Usahawan, Sejsyen U1, 40150 Shah Alam, Selangor",03-55618400, https://kkshahalam.mypolycc.edu.my
KKOM-024,Kolej Komuniti Kuala Langat Cawangan Sepang,KKKLCS,IPTA,Kolej Komuniti,Kolej Komuniti,Selangor,"Wisma Aziz Dan Rahmah, Jalan Warisan Putra 1, Taman Warisan Putra, 43800 Dengkil, Selangor",03-87501788, https://kksepang.mypolycc.edu.my/
KKOM-025,Kolej Komuniti Kuantan,KKKU,IPTA,Kolej Komuniti,Kolej Komuniti,Pahang,"B24, Jalan IM 3/13, Bandar Indera Mahkota, 25200 Kuantan, Pahang",09-5721310 / 09-5721326, https://kkkuantan.mypolycc.edu.my/
KKOM-026,Kolej Komuniti Bentong,KKBE,IPTA,Kolej Komuniti,Kolej Komuniti,Pahang,"Km 6, Karak Setia, 28600 Karak, Pahang",09-2319460 / 2319463 / 2319464 / 019-9790428, https://kkbentong.mypolycc.edu.my/
KKOM-027,Kolej Komuniti Temerloh,KKTE,IPTA,Kolej Komuniti,Kolej Komuniti,Pahang,"By Pass Batu 2, Jalan Temerloh, Kg. Chatin Ulu, 28400 Mentakab, Pahang",016-2012114 / 09-2701550 / 1557, https://kktemerloh.mypolycc.edu.my/
KKOM-028,Kolej Komuniti Paya Besar,KKPB,IPTA,Kolej Komuniti,Kolej Komuniti,Pahang,"Batu 19, Jalan Maran, 26300 Gambang, Pahang",09-5498811 / 010-3340630, https://kkpayabesar.mypolycc.edu.my
KKOM-029,Kolej Komuniti Rompin,KKRO,IPTA,Kolej Komuniti,Kolej Komuniti,Pahang,"Km 5, Jalan Pekan Rompin, 26800 Kuala Rompin, Pahang",011-30227583, https://kkrompin.mypolycc.edu.my/
KKOM-030,Kolej Komuniti Pekan,KKPE,IPTA,Kolej Komuniti,Kolej Komuniti,Pahang,"Jalan Pekan-Kuantan, Peramu Jaya, 26600 Pekan, Pahang",09-4264000, https://kkpekan.mypolycc.edu.my/
KKOM-031,Kolej Komuniti Jerantut,KKJE,IPTA,Kolej Komuniti,Kolej Komuniti,Pahang,"Taman Wawasan, Jalan Jerantut-Temerloh, 27000 Jerantut, Pahang",09-2662945 / 013-3222914, https://kkjerantut.mypolycc.edu.my
KKOM-032,Kolej Komuniti Raub,KKRA,IPTA,Kolej Komuniti,Kolej Komuniti,Pahang,"No. 11-19, Taman Amalina Lestari, Simpang Kallang, 27600 Raub, Pahang",019-9141646,
KKOM-033,Kolej Komuniti Bera,KKBER,IPTA,Kolej Komuniti,Kolej Komuniti,Pahang,"No. 1, Jalan Bera Jaya 2, Taman Bera Jaya, 28300 Triang, Pahang",017-9143064, https://kolejkomunitibera.weeblysite.com/
KKOM-034,Kolej Komuniti Kok Lanas,KKKL,IPTA,Kolej Komuniti,Kolej Komuniti,Kelantan,"Kok Lanas, 16450 Ketereh, Kelantan",013-9314175, https://kkkoklanas.mypolycc.edu.my/
KKOM-035,Kolej Komuniti Jeli,KKJEL,IPTA,Kolej Komuniti,Kolej Komuniti,Kelantan,"Lot 2396, Kg. Chedok, Bukit Bunga, 17500 Tanah Merah, Kelantan",012-6874184, https://kkjeli.mypolycc.edu.my/
KKOM-036,Kolej Komuniti Pasir Mas,KKPM,IPTA,Kolej Komuniti,Kolej Komuniti,Kelantan,"Pt 3302-3307, Taman Seri Kota, Pasir Pekan Wakaf Bharu, 16250 Tumpat, Kelantan",09-7185911 / 011-65232600 / 019-9539195, https://kkpasirmas.mypolycc.edu.my
KKOM-037,Kolej Komuniti Pasir Mas Cawangan Rantau Panjang,KKPMCRP,IPTA,Kolej Komuniti,Kolej Komuniti,Kelantan,"Lot 4471 & 4472 (Pt 3113 & 3114), Lebuhraya Rantau Panjang, 17200 Rantau Panjang, Kelantan",09-7185911 / 011-65232600 / 019-9539195, https://kkpasirmas.mypolycc.edu.my
KKOM-038,Kolej Komuniti Segamat,KKSEG,IPTA,Kolej Komuniti,Kolej Komuniti,Johor,"No. 24-34, Jalan Putra 1/1, Bandar Putra, 85000 Segamat, Johor",07-9431633 / 018-7602024, https://kksegamat.mypolycc.edu.my/
KKOM-039,Kolej Komuniti Ledang,KKLE,IPTA,Kolej Komuniti,Kolej Komuniti,Johor,"Km 5, Jalan Payamas, 84900 Tangkak, Johor",06-9789295 / 016-9163286, https://kkledang.mypolycc.edu.my/
KKOM-040,Kolej Komuniti Bandar Penawar,KKBPE,IPTA,Kolej Komuniti,Kolej Komuniti,Johor,"Jalan Ungku Abdul Aziz, Bandar Penawar, 81930 Kota Tinggi, Johor",07-8225800 samb. 222 / 010-8225875 / 013-7000026, http://kkbandarpenawar.mypolycc.edu.my/
KKOM-041,Kolej Komuniti Segamat 2,KKS2,IPTA,Kolej Komuniti,Kolej Komuniti,Johor,"Km 4, Jalan Jementah, Batu Anam, 85100 Segamat, Johor",07-9498227 / 017-2104988, https://kksegamat2.mypolycc.edu.my/
KKOM-042,Kolej Komuniti Pasir Gudang,KKPG,IPTA,Kolej Komuniti,Kolej Komuniti,Johor,"No. 61, Jalan Kijang, Taman Scientex, 81700 Pasir Gudang, Johor",07-2525316 / 07-2525626 / 012-7315489, https://kkpasirgudang.mypolycc.edu.my/
KKOM-043,Kolej Komuniti Kluang,KKKLU,IPTA,Kolej Komuniti,Kolej Komuniti,Johor,"Jalan 7, Taman Delima, 86000 Kluang, Johor",07-7733505 / 013-7699023, https://kkkluang.mypolycc.edu.my/
KKOM-044,Kolej Komuniti Batu Pahat,KKBP,IPTA,Kolej Komuniti,Kolej Komuniti,Johor,"Jalan EH 1, Evergreen Height, 83000 Batu Pahat, Johor",07-4284410 / 013-7598690, https://kkbatupahat.mypolycc.edu.my/
KKOM-045,Kolej Komuniti Muar,KKMU,IPTA,Kolej Komuniti,Kolej Komuniti,Johor.,"No. 27-37 Pusat Perniagaan Sulaiman, Jalan Sulaiman, 84000 Muar, Johor",06-9533966, https://kkmuar.mypolycc.edu.my/
KKOM-046,Kolej Komuniti Bandar Tenggara,KKBT,IPTA,Kolej Komuniti,Kolej Komuniti,Johor,"No. 65-67, Jalan Anggerik 3/1, Taman Anggerik Tenggara, 81440 Bandar Tenggara, Johor",07-8961361 / 013-7710831,https://kkbandartenggara.mypolycc.edu.my/
KKOM-047,Kolej Komuniti Tanjung Piai,KKTP,IPTA,Kolej Komuniti,Kolej Komuniti,Johor,"No. 45-47, Jalan Delima, Pusat Perdagangan Pontian, 82000 Pontian, Johor",07-6869600 / 010-2227220, https://kktanjungpiai.mypolycc.edu.my/
KKOM-048,Kolej Komuniti Pagoh,KKPA,IPTA,Kolej Komuniti,Kolej Komuniti,Johor,"No. 1-6, Jalan Pagoh Jaya 1/5, Taman Pagoh, 84500 Muar, Johor",06-9736001 / 6003, https://kkpagoh.mypolycc.edu.my/file/BUKU_PANDUAN_PENDAFTARAN_SESI_2_2025_2026.pdf
KKOM-049,Kolej Komuniti Kota Tinggi,KKKTI,IPTA,Kolej Komuniti,Kolej Komuniti,Johor,"Lot 549, No. 1A, Jalan Abdullah, 81900 Kota Tinggi, Johor",07-8821434 / 010-2203431, https://kkkotatinggi.mypolycc.edu.my/
KKOM-050,Kolej Komuniti Bandar Penawar Cawangan Gelang Patah,KKBPCGP,IPTA,Kolej Komuniti,Kolej Komuniti,Johor,"Nusa Bayu Commercial Center, Jalan Nusa Bayu 1/2, Taman Nusa Bayu, 79200 Iskandar Puteri, Johor",07-5964159, http://kkgelangpatah.mypolycc.edu.my
KKOM-051,Kolej Komuniti Bandar Darulaman,KKBD,IPTA,Kolej Komuniti,Kolej Komuniti,Kedah,"No. 17, Bandar Darulaman Jaya, 06000 Jitra, Kedah",011-31470889, https://kkbandardarulaman.mypolycc.edu.my/
KKOM-052,Kolej Komuniti Sungai Petani,KKSP,IPTA,Kolej Komuniti,Kolej Komuniti,Kedah,"No. 77, Lengkok Cempaka 1, Pusat Bandar Amanjaya, 08000 Sungai Petani, Kedah",04-4412909 / 3909 / 017-4631364, https://kksungaipetani.mypolycc.edu.my/
KKOM-053,Kolej Komuniti Kulim,KKKUL,IPTA,Kolej Komuniti,Kolej Komuniti,Kedah,"Jalan Kota Kenari 2, Taman Kota Kenari, 09000 Kulim, Kedah",04-4900412, https://kkkulim.mypolycc.edu.my/
KKOM-054,Langkawi Tourism Academy @ Kolej Komuniti Langkawi,KKL,IPTA,Kolej Komuniti,Kolej Komuniti,Kedah,"Jalan Pantai Chenang, Mukim Kedawang, 07000 Langkawi, Kedah",04-9555909, https://ltakklangkawi.mypolycc.edu.my/
KKOM-055,Kolej Komuniti Baling,KKBA,IPTA,Kolej Komuniti,Kolej Komuniti,Kedah,"Batu 42, Mukim Pulai, 09100 Baling, Kedah",04-4708768 samb.122 / 017-4867448, https://kkbaling.mypolycc.edu.my/index.php/muat-turun
KKOM-056,Kolej Komuniti Padang Terap,KKPT,IPTA,Kolej Komuniti,Kolej Komuniti,Kedah,"Taman Belimbing Indah, 06300 Kuala Nerang, Kedah",04-7903811, https://kkpadangterap.mypolycc.edu.my/
KKOM-057,Kolej Komuniti Sik,KKSI,IPTA,Kolej Komuniti,Kolej Komuniti,Kedah,"No. 28-A, Pusat Perniagaan Alamanda, 08200 Sik, Kedah",04-4693101 / 013-3999303, https://sites.google.com/kksik.edu.my/ambilan-kolej-komuniti-sik/permohonan
KKOM-058,Kolej Komuniti Bandar Darulaman Cawangan Jerlun,KKBDCJ,IPTA,Kolej Komuniti,Kolej Komuniti,Kedah,"No. 1, Tingkat Bawah, Taman Seri Kodiang, 06100 Kodiang, Kedah",04-9250519 / 011-31470889, https://kkjerlun.mypolycc.edu.my/
KKOM-059,Kolej Komuniti Bandar Baharu,KKBBA,IPTA,Kolej Komuniti,Kolej Komuniti,Kedah,"No. 1, Jalan Syariah, 34950 Bandar Baharu, Kedah",011-31743123, https://kkbandarbaharu.mypolycc.edu.my/
KKOM-060,Kolej Komuniti Jerai,KKJER,IPTA,Kolej Komuniti,Kolej Komuniti,Kedah,"Lot 7, Jalan Delima 1, Taman Delima, 08800 Guar Chempedak, Kedah",04-4682704 / 018-9164948, https://kkjerai.mypolycc.edu.my/
KKOM-061,Kolej Komuniti Bukit Beruang,KKBBE,IPTA,Kolej Komuniti,Kolej Komuniti,Melaka,"No. 23, Jalan Bbi 1, Taman Bukit Beruang Indah, 75450 Bukit Beruang, Melaka",06-2332770 / 019-7090581, https://kkbukitberuang.mypolycc.edu.my/
KKOM-062,Kolej Komuniti Masjid Tanah,KKMT,IPTA,Kolej Komuniti,Kolej Komuniti,Melaka,"Paya Rumput, 78300 Masjid Tanah, Melaka",06-3843703, https://kkmasjidtanah.mypolycc.edu.my
KKOM-063,Kolej Komuniti Selandar,KKSEL,IPTA,Kolej Komuniti,Kolej Komuniti,Melaka,"Jalan Batang Melaka, 77500 Selandar, Melaka",06-5253122 / 5253155, https://kkselandar.mypolycc.edu.my/
KKOM-064,Kolej Komuniti Jasin,KKJA,IPTA,Kolej Komuniti,Kolej Komuniti,Melaka,"Km 24, Taman Iks Merlimau, Jalan Muar, 77300 Merlimau, Melaka",06-2631616, https://kkjasin.mypolycc.edu.my/
KKOM-065,Kolej Komuniti Kota Melaka,KKKME,IPTA,Kolej Komuniti,Kolej Komuniti,Melaka,"No. 5, Kompleks Kesidang, Jalan Tun Perak, 75450 Melaka, Melaka",06-3361220 / 012-6109912, https://kkkotamelaka.mypolycc.edu.my/
KKOM-066,Kolej Komuniti Tangga Batu,KKTB,IPTA,Kolej Komuniti,Kolej Komuniti,Melaka,"Lot 423, Jalan SS 1, Taman Sayang Selasih, 75200 Klebang, Melaka",06-3152952 / 016-8287418, https://kktanggabatu.mypolycc.edu.my
KKOM-067,Kolej Komuniti Jempol,KKJEM,IPTA,Kolej Komuniti,Kolej Komuniti,Negeri Sembilan,"Taman Industri Mahsan, Km 5, Jalan Mahsan, 72100 Bahau, Negeri Sembilan",013-6664220, https://kkjempol.mypolycc.edu.my/
KKOM-068,Kolej Komuniti Jelebu,KKJ,IPTA,Kolej Komuniti,Kolej Komuniti,Negeri Sembilan,"Jalan Seperi, 71600 Kuala Klawang, Negeri Sembilan",06-6138381 / 011-1857 8120, https://kkjelebu.mypolycc.edu.my/
KKOM-069,Kolej Komuniti Rembau,KKR,IPTA,Kolej Komuniti,Kolej Komuniti,Negeri Sembilan,"Lot Pt 2565-2579, Taman Pinggiran Pedas, 71400 Pedas, Negeri Sembilan",010-4017811, https://kkrembau.mypolycc.edu.my/
KKOM-070,Kolej Komuniti Tampin,KKTAM,IPTA,Kolej Komuniti,Kolej Komuniti,Negeri Sembilan,"No. 99-100, Jalan Impian Nuri 3, Taman Impian Jaya, 73200 Gemencheh, Negeri Sembilan",06-4316029 / 017-4897946, https://kktampin.mypolycc.edu.my/
KKOM-071,Kolej Komuniti Kuala Pilah,KKKP,IPTA,Kolej Komuniti,Kolej Komuniti,Negeri Sembilan,"Jalan 4, Taman Pilah Jaya, 72000 Kuala Pilah, Negeri Sembilan",011-55576925, https://kkkualapilah.mypolycc.edu.my/
KKOM-072,Kolej Komuniti Kepala Batas,KKKB,IPTA,Kolej Komuniti,Kolej Komuniti,Pulau Pinang,"No. 87, Lorong Bertam Indah 1, Taman Bertam Indah, 13200 Kepala Batas, Pulau Pinang",04-5792300 / 011-17892300, https://kkkepalabatas.mypolycc.edu.my/v1/
KKOM-073,Kolej Komuniti Bayan Baru,KKBB,IPTA,Kolej Komuniti,Kolej Komuniti,Pulau Pinang,"No. 2, Persiaran Paya Terubong 1, 11900 Bayan Lepas, Pulau Pinang",017-6067216, https://kkbayanbaru.mypolycc.edu.my/index.php/muatturun/garis-panduan/bahagian-ambilan-dan-pembangunan-pelajar
KKOM-074,Kolej Komuniti Seberang Jaya,KKSJ,IPTA,Kolej Komuniti,Kolej Komuniti,Pulau Pinang,"Lot Pt 2811-2822, Lorong Desa Pauh 1, Taman Desa Pauh, 13700 Perai, Pulau Pinang",04-3902897, https://kkseberangjaya.mypolycc.edu.my/v1/
KKOM-075,Kolej Komuniti Nibong Tebal,KKNT,IPTA,Kolej Komuniti,Kolej Komuniti,Pulau Pinang,"No. 2, Jalan Tasek SS1, Bandar Tasek Mutiara, 14120 Simpang Ampat, Pulau Pinang",04-5082284, https://kknibongtebal.mypolycc.edu.my/
KKOM-076,Kolej Komuniti Bukit Mertajam,KKBM,IPTA,Kolej Komuniti,Kolej Komuniti,Pulau Pinang,"No. 2, Jalan Koperasi, Taman Koperasi Guru, Jalan Tanah Liat, 14000 Bukit Mertajam, Pulau Pinang",04-5378349 / 012-5322808, https://kkbukitmertajam.mypolycc.edu.my/
KKOM-077,Kolej Komuniti Tasek Gelugor,KKTG,IPTA,Kolej Komuniti,Kolej Komuniti,Pulau Pinang,"Lot 4812, Jalan Tasek Gelugor, Kampung Selamat, 13300 Tasek Gelugor, Pulau Pinang",04-5731453, https://kktasekgelugor.mypolycc.edu.my/
KKOM-078,Kolej Komuniti Kuching,KKKUC,IPTA,Kolej Komuniti,Kolej Komuniti,Sarawak,"Lot 3563, Sego Centre, Jalan Sultan Tengah, Petra Jaya, 93050 Kuching, Sarawak",082-313322 / 313321 / 313323, https://kkkuching.mypolycc.edu.my/v1/index.php/
KKOM-079,Kolej Komuniti Mas Gading,KKMG,IPTA,Kolej Komuniti,Kolej Komuniti,Sarawak,"Lot 742-750, Off Parent Lot 726, Bau Town District, 94000 Bau, Sarawak",019-8982549, https://kkmasgading.mypolycc.edu.my/
KKOM-080,Kolej Komuniti Miri,KKM,IPTA,Kolej Komuniti,Kolej Komuniti,Sarawak,"5600 Jalan Permyjaya Utama, Pusat Bandar Permyjaya, 98000 Miri, Sarawak",017-5505132, https://kkmiri.mypolycc.edu.my/
KKOM-081,Kolej Komuniti Sarikei,KKSAR,IPTA,Kolej Komuniti,Kolej Komuniti,Sarawak,"No. 7 & 8, Lot 2101 Dan 2102, Blok 36 Jalan Sentral, 96100 Sarikei, Sarawak",084-659101 / 013-5622433, https://kksarikei.mypolycc.edu.my/
KKOM-082,Kolej Komuniti Santubong,KKSAN,IPTA,Kolej Komuniti,Kolej Komuniti,Sarawak,"Sublot 37-40, Blok B, Pusat Komersial Demak Laut, Jalan Bako 93050 Kuching, Sarawak",016-8672872, https://kksantubong.mypolycc.edu.my/
KKOM-083,Kolej Komuniti Sarikei Cawangan Sibu,KKSCS,IPTA,Kolej Komuniti,Kolej Komuniti,Sarawak,"Lot 2577 - 2580, Lorong Wawasan 11f, Campus Park, 96000 Sibu, Sarawak",084-231590 / 013-5622433, https://kksibu.mypolycc.edu.my/
KKOM-084,Kolej Komuniti Betong,KKBET,IPTA,Kolej Komuniti,Kolej Komuniti,Sarawak,"Lot 2025 (Sublot 16 (Aras Bawah) - Sublot 17), Lot 2026-2027, Block 9, Batu Api Land District (Fasa 2), 95700 Betong, Sarawak",083-471830, https://kkbetong.mypolycc.edu.my/
KKOM-085,Kolej Komuniti Arau,KKA,IPTA,Kolej Komuniti,Kolej Komuniti,Perlis,"Jalan Tengku Budriah, Tambun Tulang, 02600 Arau, Perlis",04-9869800 / 019-4261953, https://kkarau.mypolycc.edu.my
KKOM-086,Kolej Komuniti Arau Cawangan Kangar,KKACK,IPTA,Kolej Komuniti,Kolej Komuniti,Perlis,"Lot 7,8,9,10,11, Blok B, Kompleks Niaga Pkenps, Jalan Raja Syed Alwi, 01000 Kangar, Perlis",04-9869800 / 019-4261953, https://kkarau.mypolycc.edu.my
KKOM-087,Kolej Komuniti Tawau,KKTAW,IPTA,Kolej Komuniti,Kolej Komuniti,Sabah,"Batu 4, Jalan Apas, Perdana Square Commercial Centre (Peti Surat 61607), 91000 Tawau, Sabah",089-913400, https://kktawau.mypolycc.edu.my/
KKOM-088,Kolej Komuniti Lahad Datu,KKLD,IPTA,Kolej Komuniti,Kolej Komuniti,Sabah,"Mdld 7211, Lot 246-255, Bandar Sri Perdana, Jalan Silam, 91110 Lahad Datu, Sabah",016-8454298, https://kklahaddatu.mypolycc.edu.my/
KKOM-089,Kolej Komuniti Sandakan,KKS,IPTA,Kolej Komuniti,Kolej Komuniti,Sabah,"Blok B4 - B5, Bandar Labuk Jaya, Batu 7, Jalan Labuk, 90000 Sandakan, Sabah",089-226370 / 011-72589732, https://kksandakan.mypolycc.edu.my/
KKOM-090,Kolej Komuniti Beaufort,KKB,IPTA,Kolej Komuniti,Kolej Komuniti,Sabah,"Jalan Melalugus, 89807 Beaufort, Sabah",087-212528 / 017-3324713, http://kkbeaufort.mypolycc.edu.my/
KKOM-091,Kolej Komuniti Tambunan,KKT,IPTA,Kolej Komuniti,Kolej Komuniti,Sabah,"Jalan Batu Gong, Peti Surat 405, 89657 Tambunan, Sabah",087-774 487 / 010-2853600, https://kktambunan.mypolycc.edu.my/
KKOM-092,Kolej Komuniti Penampang,KKPEN,IPTA,Kolej Komuniti,Kolej Komuniti,Sabah,"Lot 5-8, Blok B, Wisma Malakun, Jalan Ramayah-Putatan, 89500 Penampang, Sabah",088-760951 / 012-6077091, https://kkpenampang.mypolycc.edu.my/index.php
KKOM-093,Kolej Komuniti Kota Marudu,KKKM,IPTA,Kolej Komuniti,Kolej Komuniti,Sabah,"Blok B1,2, Blok C 1-6, Jaya Industrial Centre, 89108 Kota Marudu, Sabah",088-663693 / 014-5516126, https://kkkotamarudu.mypolycc.edu.my/
KKOM-094,Kolej Komuniti Papar,KKP,IPTA,Kolej Komuniti,Kolej Komuniti,Sabah,"Lot 32 - 41, Sri Alam Perdana Commercial Centre, 89600 Papar, Sabah",014-3735344, https://sites.google.com/view/kolej-komuniti-papar/home
KKOM-095,Kolej Komuniti Semporna,KKSEM,IPTA,Kolej Komuniti,Kolej Komuniti,Sabah,"Lot C7-C9, Blok C, Bandar Utama, Jalan Bubul, Peti Surat 402, 91308 Semporna, Sabah",017-9114721 / 089-782300,https://kksemporna.mypolycc.edu.my/
KKOM-096,Kolej Komuniti Kuala Terengganu,KKKT,IPTA,Kolej Komuniti,Kolej Komuniti,Terengganu,"Jalan Tengku Ampuan Mariam, 20200 Kuala Terengganu, Terengganu",09-6204200 / 011-11780782, https://kkkualaterengganu.mypolycc.edu.my/
KKOM-097,Kolej Komuniti Besut,KKBES,IPTA,Kolej Komuniti,Kolej Komuniti,Terengganu,"Tingkat 2 & 3, Bangunan Baitul Ehsan, Jalan Besar Jerteh, 22000 Besut, Terengganu",09-6972080,https://kkbesut.mypolycc.edu.my/
KKOM-098,Kolej Komuniti Kemaman,KKK,IPTA,Kolej Komuniti,Kolej Komuniti,Terengganu,"K148-E, Bangunan Majlis Perbandaran Kemaman, 24100 Kijal, Kemaman, Terengganu",09-8599330 / 019-2699878, https://kkkemaman.mypolycc.edu.my/
KKOM-099,Kolej Komuniti Kuala Terengganu Cawangan Kuala Nerus,KKKTCKN,IPTA,Kolej Komuniti,Kolej Komuniti,Terengganu,"Jalan Tengku Mohamad, 21200 Kuala Terengganu, Terengganu",09-6227604 / 011-11780782, https://kkkualanerus.mypolycc.edu.my/
KKOM-100,Kolej Komuniti Kuala Terengganu Caw. Hulu Terengganu,KKKTCHT,IPTA,Kolej Komuniti,Kolej Komuniti,Terengganu,"No. 25-27, Blok C, Perkedaian Pekan Ajil, 21800 Ajil, Terengganu",09-6862510 / 011-11780782, https://kkhuluterengganu.mypolycc.edu.my/
KKOM-101,Kolej Komuniti Kuala Terengganu Cawangan Setiu,KKKTCS,IPTA,Kolej Komuniti,Kolej Komuniti,Terengganu,"Bangunan Wisma Sri Langkap, 21500 Sungai Tong, Terengganu",09-6572000 / 011-11780782, https://kksetiu.mypolycc.edu.my/